STARLINK-30092          
1 57467U 23107L   26068.08801585 -.00004529  00000+0 -15913-3 0  9992
2 57467  43.0022 339.6211 0002381 265.1319  94.9260 15.26757276145051
FLOCK 4G-6              
1 62660U 25009BD  26068.71061311  .00012261  00000+0  45910-3 0  9991
2 62660  97.3980 150.7943 0002380 348.2637  11.8546 15.27432125121307
